{
    "week": 295,
    "satellites": [
        {
            "Name": "BEIDOU-3 M13 (C32)",
            "Line1": "1 43622U 18072A   24337.34446397 -.00000019  00000+0  00000+0 0  9993",
            "Line2": "2 43622  56.1331  81.2781 0005364 290.1766  69.7567  1.86231043 42198",
            "SatelliteNumber": "43622",
            "Classification": "U",
            "LaunchYear": "18",
            "LaunchNumber": "072",
            "PieceOfLaunch": "A",
            "EpochYear": "24",
            "EpochDay": 337.34446397,
            "FirstDerivativeMeanMotion": -1.9e-07,
            "SecondDerivativeMeanMotion": "00000+0",
            "BSTAR": "00000+0",
            "SetNumber": "999",
            "Inclination": 56.1331,
            "RAAN": 81.2781,
            "Eccentricity": 0.0005364,
            "ArgumentOfPerigee": 290.1766,
            "MeanAnomaly": 69.7567,
            "MeanMotion": 1.86231043,
            "RevolutionNumber": "4219"
        },
        {
            "Name": "BEIDOU-3 M14 (C33)",
            "Line1": "1 43623U 18072B   24337.20993223 -.00000020  00000+0  00000+0 0  9996",
            "Line2": "2 43623  56.1349  81.2760 0002735 326.5843  33.3887  1.86230995 42180",
            "SatelliteNumber": "43623",
            "Classification": "U",
            "LaunchYear": "18",
            "LaunchNumber": "072",
            "PieceOfLaunch": "B",
            "EpochYear": "24",
            "EpochDay": 337.20993223,
            "FirstDerivativeMeanMotion": -2e-07,
            "SecondDerivativeMeanMotion": "00000+0",
            "BSTAR": "00000+0",
            "SetNumber": "999",
            "Inclination": 56.1349,
            "RAAN": 81.276,
            "Eccentricity": 0.0002735,
            "ArgumentOfPerigee": 326.5843,
            "MeanAnomaly": 33.3887,
            "MeanMotion": 1.86230995,
            "RevolutionNumber": "4218"
        },
        {
            "Name": "BEIDOU-3 M16 (C35)",
            "Line1": "1 43647U 18078A   24337.37155519 -.00000057  00000+0  00000+0 0  9994",
            "Line2": "2 43647  54.5854 319.6017 0006906   7.7619 352.2459  1.86232285 41692",
            "SatelliteNumber": "43647",
            "Classification": "U",
            "LaunchYear": "18",
            "LaunchNumber": "078",
            "PieceOfLaunch": "A",
            "EpochYear": "24",
            "EpochDay": 337.37155519,
            "FirstDerivativeMeanMotion": -5.7e-07,
            "SecondDerivativeMeanMotion": "00000+0",
            "BSTAR": "00000+0",
            "SetNumber": "999",
            "Inclination": 54.5854,
            "RAAN": 319.6017,
            "Eccentricity": 0.0006906,
            "ArgumentOfPerigee": 7.7619,
            "MeanAnomaly": 352.2459,
            "MeanMotion": 1.86232285,
            "RevolutionNumber": "4169"
        },
        {
            "Name": "BEIDOU-3 M15 (C34)",
            "Line1": "1 43648U 18078B   24336.96374626 -.00000059  00000+0  00000+0 0  9993",
            "Line2": "2 43648  54.5815 319.6181 0003641   4.0768 355.9233  1.86232184 41700",
            "SatelliteNumber": "43648",
            "Classification": "U",
            "LaunchYear": "18",
            "LaunchNumber": "078",
            "PieceOfLaunch": "B",
            "EpochYear": "24",
            "EpochDay": 336.96374626,
            "FirstDerivativeMeanMotion": -5.9e-07,
            "SecondDerivativeMeanMotion": "00000+0",
            "BSTAR": "00000+0",
            "SetNumber": "999",
            "Inclination": 54.5815,
            "RAAN": 319.6181,
            "Eccentricity": 0.0003641,
            "ArgumentOfPerigee": 4.0768,
            "MeanAnomaly": 355.9233,
            "MeanMotion": 1.86232184,
            "RevolutionNumber": "4170"
        },
        {
            "Name": "BEIDOU-3 G1 (C59)",
            "Line1": "1 43683U 18085A   24337.76230102 -.00000253  00000+0  00000+0 0  9995",
            "Line2": "2 43683   2.6083 103.6472 0001309  46.3184 336.5200  1.00266904 22424",
            "SatelliteNumber": "43683",
            "Classification": "U",
            "LaunchYear": "18",
            "LaunchNumber": "085",
            "PieceOfLaunch": "A",
            "EpochYear": "24",
            "EpochDay": 337.76230102,
            "FirstDerivativeMeanMotion": -2.53e-06,
            "SecondDerivativeMeanMotion": "00000+0",
            "BSTAR": "00000+0",
            "SetNumber": "999",
            "Inclination": 2.6083,
            "RAAN": 103.6472,
            "Eccentricity": 0.0001309,
            "ArgumentOfPerigee": 46.3184,
            "MeanAnomaly": 336.52,
            "MeanMotion": 1.00266904,
            "RevolutionNumber": "2242"
        },
        {
            "Name": "BEIDOU-3 M17 (C36)",
            "Line1": "1 43706U 18093A   24337.11661163  .00000092  00000+0  00000+0 0  9994",
            "Line2": "2 43706  54.1964 201.3697 0006682 299.5222  60.5181  1.86228476 41079",
            "SatelliteNumber": "43706",
            "Classification": "U",
            "LaunchYear": "18",
            "LaunchNumber": "093",
            "PieceOfLaunch": "A",
            "EpochYear": "24",
            "EpochDay": 337.11661163,
            "FirstDerivativeMeanMotion": 9.2e-07,
            "SecondDerivativeMeanMotion": "00000+0",
            "BSTAR": "00000+0",
            "SetNumber": "999",
            "Inclination": 54.1964,
            "RAAN": 201.3697,
            "Eccentricity": 0.0006682,
            "ArgumentOfPerigee": 299.5222,
            "MeanAnomaly": 60.5181,
            "MeanMotion": 1.86228476,
            "RevolutionNumber": "4107"
        },
        {
            "Name": "BEIDOU-3 M18 (C37)",
            "Line1": "1 43707U 18093B   24336.98057556  .00000092  00000+0  00000+0 0  9994",
            "Line2": "2 43707  54.1972 201.3661 0006454 339.8579  20.2239  1.86230026 41060",
            "SatelliteNumber": "43707",
            "Classification": "U",
            "LaunchYear": "18",
            "LaunchNumber": "093",
            "PieceOfLaunch": "B",
            "EpochYear": "24",
            "EpochDay": 336.98057556,
            "FirstDerivativeMeanMotion": 9.2e-07,
            "SecondDerivativeMeanMotion": "00000+0",
            "BSTAR": "00000+0",
            "SetNumber": "999",
            "Inclination": 54.1972,
            "RAAN": 201.3661,
            "Eccentricity": 0.0006454,
            "ArgumentOfPerigee": 339.8579,
            "MeanAnomaly": 20.2239,
            "MeanMotion": 1.86230026,
            "RevolutionNumber": "4106"
        },
        {
            "Name": "BEIDOU-3 IGSO-1 (C38)",
            "Line1": "1 44204U 19023A   24335.79927625 -.00000219  00000+0  00000+0 0  9994",
            "Line2": "2 44204  57.8872  43.4880 0025253 212.3505 218.0758  1.00252114  1564",
            "SatelliteNumber": "44204",
            "Classification": "U",
            "LaunchYear": "19",
            "LaunchNumber": "023",
            "PieceOfLaunch": "A",
            "EpochYear": "24",
            "EpochDay": 335.79927625,
            "FirstDerivativeMeanMotion": -2.19e-06,
            "SecondDerivativeMeanMotion": "00000+0",
            "BSTAR": "00000+0",
            "SetNumber": "999",
            "Inclination": 57.8872,
            "RAAN": 43.488,
            "Eccentricity": 0.0025253,
            "ArgumentOfPerigee": 212.3505,
            "MeanAnomaly": 218.0758,
            "MeanMotion": 1.00252114,
            "RevolutionNumber": "156"
        },
        {
            "Name": "BEIDOU-2 G8 (C01)",
            "Line1": "1 44231U 19027A   24337.76038784 -.00000221  00000+0  00000+0 0  9999",
            "Line2": "2 44231   1.8955  74.7363 0004388 196.1693 219.4451  1.00275459 20441",
            "SatelliteNumber": "44231",
            "Classification": "U",
            "LaunchYear": "19",
            "LaunchNumber": "027",
            "PieceOfLaunch": "A",
            "EpochYear": "24",
            "EpochDay": 337.76038784,
            "FirstDerivativeMeanMotion": -2.21e-06,
            "SecondDerivativeMeanMotion": "00000+0",
            "BSTAR": "00000+0",
            "SetNumber": "999",
            "Inclination": 1.8955,
            "RAAN": 74.7363,
            "Eccentricity": 0.0004388,
            "ArgumentOfPerigee": 196.1693,
            "MeanAnomaly": 219.4451,
            "MeanMotion": 1.00275459,
            "RevolutionNumber": "2044"
        },
        {
            "Name": "BEIDOU-3 IGSO-2 (C39)",
            "Line1": "1 44337U 19035A   24322.83050358 -.00000064  00000+0  00000+0 0  9993",
            "Line2": "2 44337  55.1861 163.9216 0034767 201.0257 107.1426  1.00249229 19887",
            "SatelliteNumber": "44337",
            "Classification": "U",
            "LaunchYear": "19",
            "LaunchNumber": "035",
            "PieceOfLaunch": "A",
            "EpochYear": "24",
            "EpochDay": 322.83050358,
            "FirstDerivativeMeanMotion": -6.4e-07,
            "SecondDerivativeMeanMotion": "00000+0",
            "BSTAR": "00000+0",
            "SetNumber": "999",
            "Inclination": 55.1861,
            "RAAN": 163.9216,
            "Eccentricity": 0.0034767,
            "ArgumentOfPerigee": 201.0257,
            "MeanAnomaly": 107.1426,
            "MeanMotion": 1.00249229,
            "RevolutionNumber": "1988"
        }
    ]
}